CUTE-1 (CO-55)          
1 27844U 03031E   26198.45437378  .00000130  00000+0  74903-4 0  9999
2 27844  98.6744 206.6332 0010862  96.8604 263.3811 14.24352364195987
CUBESAT XI-IV (CO-57)   
1 27848U 03031J   26198.45804686  .00000106  00000+0  65800-4 0  9992
2 27848  98.6776 206.3252 0010617 113.4163 246.8133 14.23635260195686
CUBESAT XI-V            
1 28895U 05043F   26197.95849457  .00000631  00000+0  10709-3 0  9999
2 28895  98.3017 354.2118 0015311 110.0551 250.2305 14.72704810106132
CUTE-1.7+APD II (CO-65) 
1 32785U 08021C   26198.60706207  .00002064  00000+0  13220-3 0  9992
2 32785  97.8298 180.6677 0006864 289.6510  70.3978 15.09712945989788
CANX-2                  
1 32790U 08021H   26198.39217681  .00001181  00000+0  85951-4 0  9997
2 32790  97.8658 178.7645 0008588 309.3360  50.7104 15.05812712989350
SEEDS II (CO-66)        
1 32791U 08021J   26198.41728183  .00010001  00000+0  30928-3 0  9999
2 32791  97.7528 197.7827 0003325 151.8458 208.2964 15.33712210991924
SWISSCUBE               
1 35932U 09051B   26198.47700655  .00000432  00000+0  94955-4 0  9991
2 35932  98.4004 106.8899 0007951 112.9485 247.2556 14.62533018893589
BEESAT-1                
1 35933U 09051C   26197.68087813  .00000383  00000+0  86615-4 0  9997
2 35933  98.3932 105.6536 0006186 125.9975 234.1800 14.61763234893492
ITUPSAT1                
1 35935U 09051E   26198.17721015  .00000337  00000+0  79459-4 0  9990
2 35935  98.4015 105.3171 0008204 137.6090 222.5745 14.60480346893117
TISAT 1                 
1 36799U 10035E   26198.61393220  .00011234  00000+0  35734-3 0  9990
2 36799  98.0716 147.8913 0004645 115.3735 244.7987 15.32787813872366
STRAND-1                
1 39090U 13009E   26198.48055263  .00000107  00000+0  50178-4 0  9995
2 39090  98.3936  17.9715 0009515 134.8937 225.3024 14.37179617701413
BRITE-AUSTRIA           
1 39091U 13009F   26198.50657967  .00000060  00000+0  35009-4 0  9992
2 39091  98.4010  17.1942 0010890 144.2011 215.9907 14.36553023701408
NEE-01 PEGASO           
1 39151U 13018B   26198.34294980  .00001397  00000+0  13736-3 0  9999
2 39151  98.1260 343.4984 0013638  68.0697 292.1970 14.93794840715203
POPACS 2                
1 39269U 13055E   26198.49805394  .00014570 -92442-6  23743-3 0  9998
2 39269  80.9912 109.4836 0414729  96.4949 268.3649 14.92080507667732
POPACS 3                
1 39270U 13055F   26198.41547730  .00007803  00000+0  18547-3 0  9997
2 39270  81.0000 196.3943 0548497 337.8920  19.9404 14.56697307642957
ZACUBE-1 (TSHEPISOSAT)  
1 39417U 13066B   26198.46736880  .00001193  00000+0  95678-4 0  9990
2 39417  97.8006 160.9527 0044097 147.9518 212.4401 15.01334450685273
WNISAT-1                
1 39423U 13066H   26197.65127390  .00000571  00000+0  11161-3 0  9990
2 39423  97.7237 344.7215 0163959 138.7515 222.6209 14.58121814671021
TRITON-1                
1 39427U 13066M   26198.61634206  .00000547  00000+0  71213-4 0  9998
2 39427  97.8226 107.7281 0090758 134.3051 226.5651 14.81799028678594
GOMX-1                  
1 39430U 13066Q   26198.62241387  .00000608  00000+0  98269-4 0  9995
2 39430  97.6461  37.1641 0128022 340.3927  19.2381 14.69545680674389
CUBEBUG-2 (LO-74)       
1 39440U 13066AA  26198.60635635  .00001948  00000+0  18322-3 0  9996
2 39440  97.8919 147.7205 0055601 287.2018  72.3120 14.93976531681532
NEE-02 KRYSAOR          
1 39441U 13066AB  26198.29430496  .00001069  00000+0  12208-3 0  9991
2 39441  97.8897 137.2978 0065226 332.3487  27.4265 14.86744048680678
FUNCUBE-1 (AO-73)       
1 39444U 13066AE  26198.34715986  .00004168  00000+0  25766-3 0  9996
2 39444  97.8294 170.4330 0037942 100.7078 259.8426 15.09834376684214
UWE-3                   
1 39446U 13066AG  26198.35863993  .00002054  00000+0  17893-3 0  9995
2 39446  97.8718 154.6426 0047588 217.0557 142.7376 14.97207851682094
BRITE-CA1 (TORONTO)     
1 40020U 14033L   26197.93307811  .00000506  00000+0  83590-4 0  9993
2 40020  97.9774 326.3188 0078575 180.6925 179.4187 14.72724463646592
DUCHIFAT-1              
1 40021U 14033M   26197.69874411  .00099153  00000+0  77546-3 0  9991
2 40021  98.0414 261.1627 0002786 236.8489 123.2505 15.71313651660376
NANOSATC-BR1            
1 40024U 14033Q   26198.05591393  .00010197  00000+0  32893-3 0  9997
2 40024  98.0704 233.1102 0005253  91.9307 268.2534 15.32365382658553
QB50P1                  
1 40025U 14033R   26198.00121204  .00004208  00000+0  20647-3 0  9993
2 40025  98.0964 211.2472 0010459 119.5295 240.6982 15.18681576657556
QB50P2                  
1 40032U 14033Y   26198.27700991  .00004006  00000+0  21521-3 0  9994
2 40032  98.0764 197.0406 0009266  78.0159 282.2110 15.15522510657220
PERSEUS-M2              
1 40037U 14033AD  26198.57229622  .00000107  00000+0  15189-4 0  9991
2 40037  97.9988 149.7365 0011002 191.2323 168.8653 14.95592137655320
PERSEUS-M1              
1 40039U 14033AF  26198.60970736  .00000770  00000+0  74509-4 0  9993
2 40039  97.9655 143.2446 0011067 188.2040 171.9001 14.95720558655181
